GAOFEN-3                
1 41727U 16049A   26162.88062375 -.00000133  00000+0 -27087-4 0  9993
2 41727  98.4014 170.7464 0001281  99.5165 260.6170 14.42214327517886
SKYSAT-C4               
1 41771U 16058B   26162.58085238  .00014882  00000+0  28218-3 0  9992
2 41771  96.9177 184.5882 0000957 116.6405 243.4945 15.48411611544603
SKYSAT-C5               
1 41772U 16058C   26162.69123456  .00007020  00000+0  21302-3 0  9993
2 41772  97.0478 203.5767 0001617 351.6137   8.5079 15.34391815542908
SKYSAT-C2               
1 41773U 16058D   26162.61368267  .00011321  00000+0  26782-3 0  9993
2 41773  97.0174 184.9185 0005030  82.8740 277.3080 15.41943736544198
SKYSAT-C3               
1 41774U 16058E   26162.53550163  .00020600  00000+0  33990-3 0  9992
2 41774  96.9012 193.6007 0001751  86.2844 273.8610 15.52297681545236
ALSAT-1B                
1 41785U 16059C   26162.87106825  .00000592  00000+0  10115-3 0  9996
2 41785  97.7754 171.8643 0007816 239.7354 120.3081 14.72271682519797
PATHFINDER 1            
1 41787U 16059E   26162.54601652  .00000496  00000+0  94938-4 0  9999
2 41787  97.8166 162.0768 0027394 222.0974 137.8127 14.67656806518885
SCATSAT 1               
1 41790U 16059H   26162.73519478  .00000882  00000+0  12282-3 0  9998
2 41790  98.1191 226.4449 0053251 265.5339  93.9787 14.79514080100780
GOKTURK 1A              
1 41875U 16073A   26162.84181622  .00000334  00000+0  74688-4 0  9997
2 41875  98.1260  57.5999 0001451  78.0342 282.1022 14.62770875508043
RESOURCESAT-2A          
1 41877U 16074A   26162.86251807 -.00000188  00000+0 -65774-4 0  9990
2 41877  98.7527 236.4102 0003375  93.6523 266.5040 14.21613822493549
CARTOSAT-2D             
1 41948U 17008A   26162.82360766  .00003708  00000+0  17892-3 0  9994
2 41948  97.4115 222.2296 0003605 254.3402 105.7435 15.19292712516763
SENTINEL-2B             
1 42063U 17013A   26162.82287162  .00000105  00000+0  56718-4 0  9996
2 42063  98.5691 237.6730 0001184  84.9020 275.2298 14.30815483483872
CARTOSAT-2E             
1 42767U 17036C   26162.38018890  .00003701  00000+0  17867-3 0  9999
2 42767  97.4279 222.2784 0002739 345.0815  15.0338 15.19276811497269
FORMOSAT-5              
1 42920U 17049A   26162.81168591  .00000118  00000+0  40956-4 0  9991
2 42920  98.2253 238.2407 0012703  99.1555 261.1077 14.50896830465891
SENTINEL-5P             
1 42969U 17064A   26162.70397132  .00000023  00000+0  32042-4 0  9996
2 42969  98.7925 104.8742 0000985  83.5718 276.5570 14.19518062448782
SKYSAT-C11              
1 42987U 17068A   26162.40438802  .00022701  00000+0  30874-3 0  9994
2 42987  97.4337 310.9856 0000881  86.6120 273.5236 15.57594006482348
SKYSAT-C10              
1 42988U 17068B   26162.35860817  .00007458  00000+0  22533-3 0  9999
2 42988  97.4490 299.1499 0001169  92.3296 267.8081 15.34538193481464
SKYSAT-C9               
1 42989U 17068C   26162.65633705  .00012606  00000+0  30298-3 0  9995
2 42989  97.4411 300.3327 0009162 150.5736 209.6029 15.41424602481902
SKYSAT-C8               
1 42990U 17068D   26162.33879073  .00008965  00000+0  25109-3 0  9990
2 42990  97.4508 298.9075 0001524  97.0045 263.1372 15.36860099481415
SKYSAT-C7               
1 42991U 17068E   26162.65777490  .00010227  00000+0  28624-3 0  9995
2 42991  97.4520 300.2198 0007126 122.5745 237.6188 15.36816791481521
SKYSAT-C6               
1 42992U 17068F   26162.34180288  .00008016  00000+0  24524-3 0  9993
2 42992  97.4555 299.8907 0004143 152.7349 207.4112 15.34108684481426
CARTOSAT-2F             
1 43111U 18004A   26162.87328981  .00003373  00000+0  16366-3 0  9996
2 43111  97.4795 222.5595 0000313 291.0029  69.1172 15.19172126466527
GAOFEN-1 02             
1 43259U 18031A   26162.87682925  .00000417  00000+0  67306-4 0  9997
2 43259  98.0530 225.4187 0004132  46.6403 313.5151 14.76449128441916
GAOFEN-1 03             
1 43260U 18031B   26162.85502105  .00000630  00000+0  97993-4 0  9990
2 43260  98.0524 225.2558 0003816  89.6758 270.4888 14.76461516441901
GAOFEN-1 04             
1 43262U 18031D   26162.89849134  .00000428  00000+0  68958-4 0  9996
2 43262  98.0532 225.4891 0002261  87.5135 272.6334 14.76471250441909
SENTINEL-3B             
1 43437U 18039A   26162.43904625  .00000076  00000+0  49397-4 0  9990
2 43437  98.6248 230.0537 0000809  80.8461 279.2811 14.26740095423304
GAOFEN-5 01             
1 43461U 18043A   26162.64981654  .00000270  00000+0  65725-4 0  9991
2 43461  98.4566 134.1198 0003051  93.5357 266.6191 14.60601582430883
GAOFEN-6                
1 43484U 18048A   26162.64998199  .00000037  00000+0  12384-4 0  9997
2 43484  97.8379 225.5422 0011395 185.7681 174.3400 14.76588225432573
GAOFEN-11 01            
1 43585U 18063A   26162.83293183  .00011509  00000+0  17224-3 0  9991
2 43585  97.1301 229.7270 0003726  17.7949 342.3436 15.55129962439514
ICESAT-2                
1 43613U 18070A   26162.65469065  .00008992  00000+0  32596-3 0  9996
2 43613  92.0068 289.4850 0005469 112.5329 247.6500 15.28319944431612
HYSIS                   
1 43719U 18096A   26162.86559395  .00000575  00000+0  85557-4 0  9995
2 43719  97.9841 229.6553 0001780 109.9583 250.1820 14.78683312406637
